ADRAS-J                 
1 58992U 24034A   24186.12154776  .00004038  00000+0  37540-3 0  9996
2 58992  98.2116 159.9099 0043538 355.2522   4.8277 14.94255932 20397
